     2.100          NAVIGATION                              RINEX VERSION / TYPE
fic2rin                                 07/02/2014 00:34:08 PGM / RUN BY / DATE
                                                            END OF HEADER
16 14  7  1  2  0  0.0 -.210159923881D-03  .216004991671D-11  .000000000000D+00
     .600000000000D+01  .263750000000D+02  .407659837811D-08  .152571799251D+00
     .153109431267D-05  .770526693668D-02  .311061739922D-05  .515361249924D+04
     .180000000000D+06  .894069671631D-07  .192125301259D+01  .316649675369D-07
     .988194886626D+00  .332093750000D+03  .228266832116D+00 -.816676875013D-08
     .248224625266D-09  .100000000000D+01  .179900000000D+04  .000000000000D+00
     .240000000000D+01  .000000000000D+00 -.102445483208D-07  .600000000000D+01
     .172806000000D+06  .400000000000D+01
17 14  7  1  2  0  0.0 -.105408951640D-03 -.284217094304D-11  .000000000000D+00
     .740000000000D+02 -.944687500000D+02  .444947105261D-08 -.766373465297D+00
    -.472553074360D-05  .932099833153D-02  .677816569805D-05  .515361683846D+04
     .180000000000D+06 -.596046447754D-07  .295274617965D+01  .173225998878D-06
     .969388439811D+00  .255531250000D+03 -.209745351063D+01 -.814176770873D-08
    -.123576576032D-09  .100000000000D+01  .179900000000D+04  .000000000000D+00
     .340000000000D+01  .000000000000D+00 -.102445483208D-07  .740000000000D+02
     .172806000000D+06  .400000000000D+01
18 14  7  1  2  0  0.0  .328778754920D-03  .227373675443D-11  .000000000000D+00
     .880000000000D+02  .271250000000D+02  .587238746565D-08  .796286274988D+00
     .154972076416D-05  .154381777393D-01  .584311783314D-05  .515369938278D+04
     .180000000000D+06 -.167638063431D-06 -.128949140410D+01  .726431608200D-07
     .925277897516D+00  .252656250000D+03 -.202629232714D+01 -.893465787865D-08
     .117862052285D-10  .100000000000D+01  .179900000000D+04  .000000000000D+00
     .240000000000D+01  .000000000000D+00 -.111758708954D-07  .880000000000D+02
     .172806000000D+06  .400000000000D+01
19 14  7  1  2  0  0.0 -.465683639050D-03 -.216004991671D-11  .000000000000D+00
     .430000000000D+02 -.102687500000D+03  .440589780904D-08 -.157582533006D+01
    -.555254518986D-05  .104964564089D-01  .625476241112D-05  .515363185310D+04
     .180000000000D+06  .104308128357D-06  .300342943586D+01 -.178813934326D-06
     .966519702808D+00  .257062500000D+03  .456058514291D+00 -.797640367780D-08
     .392873507616D-11  .100000000000D+01  .179900000000D+04  .000000000000D+00
     .240000000000D+01  .000000000000D+00 -.149011611938D-07  .430000000000D+02
     .172806000000D+06  .400000000000D+01
20 14  7  1  2  0  0.0  .205719843507D-03  .409272615798D-11  .000000000000D+00
     .420000000000D+02  .297500000000D+02  .568487965520D-08  .130789372858D+01
     .142678618431D-05  .575693859719D-02  .560097396374D-05  .515376700783D+04
     .180000000000D+06 -.191852450371D-06 -.134254967856D+01 -.465661287308D-07
     .926291578322D+00  .253250000000D+03  .132833018651D+01 -.863893127473D-08
     .185007706314D-09  .100000000000D+01  .179900000000D+04  .000000000000D+00
     .240000000000D+01  .000000000000D+00 -.838190317154D-08  .420000000000D+02
     .172806000000D+06  .400000000000D+01
21 14  7  1  2  0  0.0 -.370063818991D-03 -.216004991671D-11  .000000000000D+00
     .410000000000D+02 -.334062500000D+02  .509414076284D-08  .174745607432D+01
    -.190362334251D-05  .215301882708D-01  .113304704428D-04  .515374305916D+04
     .180000000000D+06 -.383704900742D-06 -.233474636004D+01 -.443309545517D-06
     .932530306579D+00  .151656250000D+03 -.201260827481D+01 -.820319883902D-08
     .355014787791D-09  .100000000000D+01  .179900000000D+04  .000000000000D+00
     .240000000000D+01  .000000000000D+00 -.111758708954D-07  .410000000000D+02
     .172806000000D+06  .400000000000D+01
22 14  7  1  2  0  0.0  .246533658355D-03  .318323145621D-11  .000000000000D+00
     .410000000000D+02  .275312500000D+02  .590560313493D-08  .235058452705D+00
     .158511102200D-05  .734897935763D-02  .537745654583D-05  .515371938324D+04
     .180000000000D+06 -.223517417908D-07 -.128766995845D+01  .931322574615D-08
     .923058993112D+00  .254781250000D+03 -.205047739708D+01 -.884465412963D-08
     .903609067516D-10  .100000000000D+01  .179900000000D+04  .000000000000D+00
     .240000000000D+01  .000000000000D+00 -.172294676304D-07  .410000000000D+02
     .172806000000D+06  .400000000000D+01
23 14  7  1  2  0  0.0 -.329669564962D-04 -.306954461848D-11  .000000000000D+00
     .650000000000D+02 -.245312500000D+02  .471162482951D-08 -.194199149288D+01
    -.140443444252D-05  .956264859997D-02  .774674117565D-05  .515376661873D+04
     .180000000000D+06  .167638063431D-07 -.222929684179D+00 -.132247805595D-06
     .951698256544D+00  .224468750000D+03 -.276719264800D+01 -.802604860285D-08
    -.414302971667D-09  .100000000000D+01  .179900000000D+04  .000000000000D+00
     .240000000000D+01  .000000000000D+00 -.200234353542D-07  .650000000000D+02
     .172806000000D+06  .400000000000D+01
24 14  7  1  2  0  0.0 -.310433097184D-04 -.568434188608D-12  .000000000000D+00
     .820000000000D+02  .840625000000D+02  .417088801994D-08 -.274001852628D+01
     .435486435890D-05  .208266125992D-02  .978820025921D-05  .515373131943D+04
     .180000000000D+06  .260770320892D-07  .803573978413D+00  .372529029846D-07
     .956693273292D+00  .188531250000D+03  .339776501672D+00 -.788175687824D-08
     .642883921553D-10  .100000000000D+01  .179900000000D+04  .000000000000D+00
     .240000000000D+01  .000000000000D+00  .279396772385D-08  .820000000000D+02
     .172806000000D+06  .400000000000D+01
25 14  7  1  2  0  0.0  .249128788710D-04  .000000000000D+00  .000000000000D+00
     .820000000000D+02  .414687500000D+02  .434589530970D-08  .150966597466D+01
     .202469527721D-05  .367450027261D-02  .281259417534D-05  .515358848381D+04
     .180000000000D+06 -.316649675369D-07  .185983510928D+01  .000000000000D+00
     .976277174754D+00  .331031250000D+03  .713189513012D+00 -.826677291570D-08
     .241795786051D-09  .100000000000D+01  .179900000000D+04  .000000000000D+00
     .340000000000D+01  .000000000000D+00  .512227416039D-08  .820000000000D+02
     .172806000000D+06  .400000000000D+01
26 14  7  1  2  0  0.0  .293124467134D-04 -.123918653117D-10  .000000000000D+00
     .460000000000D+02 -.281250000000D+01  .403052503040D-08 -.202622255034D+01
    -.968575477600D-07  .212643637788D-01  .855512917042D-05  .515369174194D+04
     .180000000000D+06  .366941094398D-06 -.133796830044D+00  .260770320892D-07
     .974919538501D+00  .218781250000D+03  .128792826736D+01 -.742745224034D-08
    -.492877673191D-09  .100000000000D+01  .179900000000D+04  .000000000000D+00
     .240000000000D+01  .000000000000D+00 -.605359673500D-08  .460000000000D+02
     .172806000000D+06  .400000000000D+01
27 14  7  1  2  0  0.0 -.580912455916D-05  .306954461848D-11  .000000000000D+00
     .540000000000D+02 -.982187500000D+02  .453233164695D-08 -.818570628135D+00
    -.509619712830D-05  .137466343585D-02  .567361712456D-05  .515367619896D+04
     .180000000000D+06  .689178705215D-07  .290700877590D+01 -.316649675369D-07
     .964134280291D+00  .270375000000D+03  .238933732938D+00 -.814712507475D-08
    -.133576992589D-09  .100000000000D+01  .179900000000D+04  .000000000000D+00
     .240000000000D+01  .000000000000D+00  .186264514923D-08  .540000000000D+02
     .172806000000D+06  .400000000000D+01
29 14  7  1  2  0  0.0  .543466769159D-03  .261479726760D-11  .000000000000D+00
     .680000000000D+02 -.102093750000D+03  .440982654412D-08  .190420099076D+01
    -.541843473911D-05  .144274288323D-02  .674836337566D-05  .515368492508D+04
     .180000000000D+06  .447034835815D-07  .296183282612D+01  .372529029846D-07
     .970138359414D+00  .258437500000D+03 -.812525060656D+00 -.802890586473D-08
    -.172864343351D-09  .100000000000D+01  .179900000000D+04  .000000000000D+00
     .240000000000D+01  .000000000000D+00 -.977888703346D-08  .680000000000D+02
     .172806000000D+06  .400000000000D+01
30 14  7  1  2  0  0.0 -.362787395716D-04 -.670752342558D-11  .000000000000D+00
     .680000000000D+02  .786250000000D+02  .423517641210D-08  .288855303151D+01
     .409409403801D-05  .856259022839D-03  .881962478161D-05  .515369318390D+04
     .180000000000D+06  .186264514923D-07  .892797656355D+00 -.335276126862D-07
     .958879901334D+00  .209500000000D+03  .282731338331D+01 -.792104422900D-08
     .575023952056D-10  .100000000000D+01  .179900000000D+04  .000000000000D+00
     .240000000000D+01  .000000000000D+00  .325962901115D-08  .680000000000D+02
     .172806000000D+06  .400000000000D+01
31 14  7  1  2  0  0.0  .333762727678D-03 -.227373675443D-12  .000000000000D+00
     .500000000000D+02  .715000000000D+02  .371372612017D-08  .265339470100D+01
     .383146107197D-05  .795069837477D-02  .102855265141D-04  .515358218765D+04
     .180000000000D+06  .558793544769D-08  .845110718231D+00  .409781932831D-07
     .978257265096D+00  .191156250000D+03 -.634194161830D+00 -.755817197106D-08
    -.210723063176D-10  .100000000000D+01  .179900000000D+04  .000000000000D+00
     .240000000000D+01  .000000000000D+00 -.130385160446D-07  .500000000000D+02
     .172806000000D+06  .400000000000D+01
32 14  7  1  2  0  0.0 -.395236536860D-03  .829913915368D-11  .000000000000D+00
     .500000000000D+02  .248125000000D+02  .507592571839D-08 -.300587074478D+01
     .115111470222D-05  .113960345043D-01  .550970435143D-05  .515370432854D+04
     .180000000000D+06 -.203028321266D-06 -.119459734012D+01  .409781932831D-07
     .947224091297D+00  .265406250000D+03 -.140039591565D+00 -.812498129523D-08
     .378587198248D-10  .100000000000D+01  .179900000000D+04  .000000000000D+00
     .240000000000D+01  .000000000000D+00 -.325962901115D-08  .500000000000D+02
     .172806000000D+06  .400000000000D+01
